[{"OBJECT_NAME":"QIANFAN-52","OBJECT_ID":"2024-232S","EPOCH":"2026-03-05T14:33:35.493120","MEAN_MOTION":13.5100087,"ECCENTRICITY":0.00141075,"INCLINATION":89.0054,"RA_OF_ASC_NODE":32.7424,"ARG_OF_PERICENTER":319.8238,"MEAN_ANOMALY":40.187,"EPHEMERIS_TYPE":0,"CLASSIFICATION_TYPE":"U","NORAD_CAT_ID":62253,"ELEMENT_SET_NO":999,"REV_AT_EPOCH":7913,"BSTAR":0.00012807073,"MEAN_MOTION_DOT":9.5e-7,"MEAN_MOTION_DDOT":0},{"OBJECT_NAME":"QIANFAN-53","OBJECT_ID":"2024-232T","EPOCH":"2026-03-05T14:03:55.325664","MEAN_MOTION":13.51003544,"ECCENTRICITY":0.00130296,"INCLINATION":89.0061,"RA_OF_ASC_NODE":32.8551,"ARG_OF_PERICENTER":321.7022,"MEAN_ANOMALY":38.3203,"EPHEMERIS_TYPE":0,"CLASSIFICATION_TYPE":"U","NORAD_CAT_ID":62254,"ELEMENT_SET_NO":999,"REV_AT_EPOCH":7909,"BSTAR":9.0746233e-5,"MEAN_MOTION_DOT":7.0e-7,"MEAN_MOTION_DDOT":0},{"OBJECT_NAME":"QIANFAN-54","OBJECT_ID":"2024-232U","EPOCH":"2026-03-05T13:16:34.226688","MEAN_MOTION":13.51002958,"ECCENTRICITY":0.00031164,"INCLINATION":89.0053,"RA_OF_ASC_NODE":32.5297,"ARG_OF_PERICENTER":39.5073,"MEAN_ANOMALY":320.6305,"EPHEMERIS_TYPE":0,"CLASSIFICATION_TYPE":"U","NORAD_CAT_ID":62255,"ELEMENT_SET_NO":999,"REV_AT_EPOCH":11059,"BSTAR":0.00011200762,"MEAN_MOTION_DOT":8.4e-7,"MEAN_MOTION_DDOT":0},{"OBJECT_NAME":"QIANFAN-55","OBJECT_ID":"2025-016A","EPOCH":"2026-03-05T13:54:05.090112","MEAN_MOTION":13.50996307,"ECCENTRICITY":0.00194308,"INCLINATION":88.9692,"RA_OF_ASC_NODE":94.6393,"ARG_OF_PERICENTER":107.8604,"MEAN_ANOMALY":252.4669,"EPHEMERIS_TYPE":0,"CLASSIFICATION_TYPE":"U","NORAD_CAT_ID":62785,"ELEMENT_SET_NO":999,"REV_AT_EPOCH":5837,"BSTAR":6.5250018e-5,"MEAN_MOTION_DOT":5.4e-7,"MEAN_MOTION_DDOT":0},{"OBJECT_NAME":"QIANFAN-56","OBJECT_ID":"2025-016B","EPOCH":"2026-03-05T14:17:39.612768","MEAN_MOTION":13.50998193,"ECCENTRICITY":0.00180605,"INCLINATION":88.9665,"RA_OF_ASC_NODE":94.4517,"ARG_OF_PERICENTER":109.8262,"MEAN_ANOMALY":250.4838,"EPHEMERIS_TYPE":0,"CLASSIFICATION_TYPE":"U","NORAD_CAT_ID":62786,"ELEMENT_SET_NO":999,"REV_AT_EPOCH":5842,"BSTAR":5.6894832e-5,"MEAN_MOTION_DOT":4.9e-7,"MEAN_MOTION_DDOT":0},{"OBJECT_NAME":"QIANFAN-57","OBJECT_ID":"2025-016C","EPOCH":"2026-03-05T13:18:29.718432","MEAN_MOTION":13.50997064,"ECCENTRICITY":0.00013659,"INCLINATION":88.9697,"RA_OF_ASC_NODE":94.6352,"ARG_OF_PERICENTER":99.1219,"MEAN_ANOMALY":261.0087,"EPHEMERIS_TYPE":0,"CLASSIFICATION_TYPE":"U","NORAD_CAT_ID":62787,"ELEMENT_SET_NO":999,"REV_AT_EPOCH":5838,"BSTAR":5.0103297e-5,"MEAN_MOTION_DOT":4.4e-7,"MEAN_MOTION_DDOT":0},{"OBJECT_NAME":"QIANFAN-58","OBJECT_ID":"2025-016D","EPOCH":"2026-03-05T14:23:34.823904","MEAN_MOTION":13.50998706,"ECCENTRICITY":0.00160202,"INCLINATION":88.9666,"RA_OF_ASC_NODE":94.4365,"ARG_OF_PERICENTER":102.9743,"MEAN_ANOMALY":257.3198,"EPHEMERIS_TYPE":0,"CLASSIFICATION_TYPE":"U","NORAD_CAT_ID":62788,"ELEMENT_SET_NO":999,"REV_AT_EPOCH":5843,"BSTAR":5.3567395e-5,"MEAN_MOTION_DOT":4.7e-7,"MEAN_MOTION_DDOT":0},{"OBJECT_NAME":"QIANFAN-59","OBJECT_ID":"2025-016E","EPOCH":"2026-03-05T13:12:41.920416","MEAN_MOTION":13.50994555,"ECCENTRICITY":0.00163614,"INCLINATION":88.969,"RA_OF_ASC_NODE":94.5351,"ARG_OF_PERICENTER":106.4067,"MEAN_ANOMALY":253.8884,"EPHEMERIS_TYPE":0,"CLASSIFICATION_TYPE":"U","NORAD_CAT_ID":62789,"ELEMENT_SET_NO":999,"REV_AT_EPOCH":5842,"BSTAR":4.8505043e-5,"MEAN_MOTION_DOT":4.4e-7,"MEAN_MOTION_DDOT":0},{"OBJECT_NAME":"QIANFAN-60","OBJECT_ID":"2025-016F","EPOCH":"2026-03-05T14:00:06.984288","MEAN_MOTION":13.50992494,"ECCENTRICITY":0.00179312,"INCLINATION":88.9671,"RA_OF_ASC_NODE":94.4872,"ARG_OF_PERICENTER":103.3716,"MEAN_ANOMALY":256.9436,"EPHEMERIS_TYPE":0,"CLASSIFICATION_TYPE":"U","NORAD_CAT_ID":62790,"ELEMENT_SET_NO":999,"REV_AT_EPOCH":5841,"BSTAR":3.4523886e-5,"MEAN_MOTION_DOT":3.5e-7,"MEAN_MOTION_DDOT":0},{"OBJECT_NAME":"QIANFAN-61","OBJECT_ID":"2025-016G","EPOCH":"2026-03-05T14:45:01.370880","MEAN_MOTION":13.46648286,"ECCENTRICITY":0.00140659,"INCLINATION":88.9734,"RA_OF_ASC_NODE":94.7032,"ARG_OF_PERICENTER":94.622,"MEAN_ANOMALY":265.6536,"EPHEMERIS_TYPE":0,"CLASSIFICATION_TYPE":"U","NORAD_CAT_ID":62791,"ELEMENT_SET_NO":999,"REV_AT_EPOCH":5843,"BSTAR":-3.0832359,"MEAN_MOTION_DOT":-0.01743446,"MEAN_MOTION_DDOT":0},{"OBJECT_NAME":"QIANFAN-62","OBJECT_ID":"2025-016H","EPOCH":"2026-03-05T13:06:41.635872","MEAN_MOTION":13.50996558,"ECCENTRICITY":0.00182352,"INCLINATION":88.9685,"RA_OF_ASC_NODE":94.5341,"ARG_OF_PERICENTER":103.2036,"MEAN_ANOMALY":257.1151,"EPHEMERIS_TYPE":0,"CLASSIFICATION_TYPE":"U","NORAD_CAT_ID":62792,"ELEMENT_SET_NO":999,"REV_AT_EPOCH":5841,"BSTAR":4.2106218e-5,"MEAN_MOTION_DOT":3.9e-7,"MEAN_MOTION_DDOT":0},{"OBJECT_NAME":"QIANFAN-63","OBJECT_ID":"2025-016J","EPOCH":"2026-03-05T13:42:17.602848","MEAN_MOTION":13.50995183,"ECCENTRICITY":0.00182726,"INCLINATION":88.9691,"RA_OF_ASC_NODE":94.4886,"ARG_OF_PERICENTER":107.9068,"MEAN_ANOMALY":252.4078,"EPHEMERIS_TYPE":0,"CLASSIFICATION_TYPE":"U","NORAD_CAT_ID":62793,"ELEMENT_SET_NO":999,"REV_AT_EPOCH":5845,"BSTAR":4.1568962e-5,"MEAN_MOTION_DOT":3.9e-7,"MEAN_MOTION_DDOT":0},{"OBJECT_NAME":"QIANFAN-64","OBJECT_ID":"2025-016K","EPOCH":"2026-03-05T14:41:34.682208","MEAN_MOTION":13.51005458,"ECCENTRICITY":0.0016232,"INCLINATION":88.9678,"RA_OF_ASC_NODE":94.4472,"ARG_OF_PERICENTER":101.4221,"MEAN_ANOMALY":258.8754,"EPHEMERIS_TYPE":0,"CLASSIFICATION_TYPE":"U","NORAD_CAT_ID":62794,"ELEMENT_SET_NO":999,"REV_AT_EPOCH":5845,"BSTAR":-2.389184e-6,"MEAN_MOTION_DOT":1.1e-7,"MEAN_MOTION_DDOT":0},{"OBJECT_NAME":"QIANFAN-65","OBJECT_ID":"2025-016L","EPOCH":"2026-03-05T14:35:31.109280","MEAN_MOTION":13.51008726,"ECCENTRICITY":0.00160851,"INCLINATION":88.9674,"RA_OF_ASC_NODE":94.4708,"ARG_OF_PERICENTER":102.9446,"MEAN_ANOMALY":257.3502,"EPHEMERIS_TYPE":0,"CLASSIFICATION_TYPE":"U","NORAD_CAT_ID":62795,"ELEMENT_SET_NO":999,"REV_AT_EPOCH":5843,"BSTAR":1.9645818e-5,"MEAN_MOTION_DOT":2.5e-7,"MEAN_MOTION_DDOT":0},{"OBJECT_NAME":"QIANFAN-66","OBJECT_ID":"2025-016M","EPOCH":"2026-03-05T13:30:20.910528","MEAN_MOTION":13.50996882,"ECCENTRICITY":0.00171978,"INCLINATION":88.9694,"RA_OF_ASC_NODE":94.4618,"ARG_OF_PERICENTER":99.3181,"MEAN_ANOMALY":260.9916,"EPHEMERIS_TYPE":0,"CLASSIFICATION_TYPE":"U","NORAD_CAT_ID":62796,"ELEMENT_SET_NO":999,"REV_AT_EPOCH":5847,"BSTAR":3.6386049e-5,"MEAN_MOTION_DOT":3.6e-7,"MEAN_MOTION_DDOT":0},{"OBJECT_NAME":"QIANFAN-67","OBJECT_ID":"2025-016N","EPOCH":"2026-03-05T13:36:11.712672","MEAN_MOTION":13.50995269,"ECCENTRICITY":0.00171446,"INCLINATION":88.9684,"RA_OF_ASC_NODE":94.4788,"ARG_OF_PERICENTER":105.3437,"MEAN_ANOMALY":254.961,"EPHEMERIS_TYPE":0,"CLASSIFICATION_TYPE":"U","NORAD_CAT_ID":62797,"ELEMENT_SET_NO":999,"REV_AT_EPOCH":5844,"BSTAR":4.3465113e-5,"MEAN_MOTION_DOT":4.0e-7,"MEAN_MOTION_DDOT":0},{"OBJECT_NAME":"QIANFAN-68","OBJECT_ID":"2025-016P","EPOCH":"2026-03-05T13:24:32.874912","MEAN_MOTION":13.51005235,"ECCENTRICITY":0.00172113,"INCLINATION":88.9688,"RA_OF_ASC_NODE":94.5279,"ARG_OF_PERICENTER":103.8432,"MEAN_ANOMALY":256.4636,"EPHEMERIS_TYPE":0,"CLASSIFICATION_TYPE":"U","NORAD_CAT_ID":62798,"ELEMENT_SET_NO":999,"REV_AT_EPOCH":5842,"BSTAR":5.0063387e-5,"MEAN_MOTION_DOT":4.5e-7,"MEAN_MOTION_DDOT":0}]
