QIANFAN-52              
1 62253U 24232S   26064.60666080  .00000095  00000+0  12807-3 0  9995
2 62253  89.0054  32.7424 0014107 319.8238  40.1870 13.51000870 79130
QIANFAN-53              
1 62254U 24232T   26064.58605701  .00000070  00000+0  90746-4 0  9998
2 62254  89.0061  32.8551 0013029 321.7022  38.3203 13.51003544 79091
QIANFAN-54              
1 62255U 24232U   26064.55317392  .00000084  00000+0  11201-3 0  9995
2 62255  89.0053  32.5297 0003116  39.5073 320.6305 13.51002958110592
QIANFAN-55              
1 62785U 25016A   26064.57922558  .00000054  00000+0  65250-4 0  9993
2 62785  88.9692  94.6393 0019430 107.8604 252.4669 13.50996307 58379
QIANFAN-56              
1 62786U 25016B   26064.59559737  .00000049  00000+0  56895-4 0  9990
2 62786  88.9665  94.4517 0018060 109.8262 250.4838 13.50998193 58423
QIANFAN-57              
1 62787U 25016C   26064.55451063  .00000044  00000+0  50103-4 0  9991
2 62787  88.9697  94.6352 0001365  99.1219 261.0087 13.50997064 58386
QIANFAN-58              
1 62788U 25016D   26064.59970861  .00000047  00000+0  53567-4 0  9998
2 62788  88.9666  94.4365 0016020 102.9743 257.3198 13.50998706 58435
QIANFAN-59              
1 62789U 25016E   26064.55048519  .00000044  00000+0  48505-4 0  9994
2 62789  88.9690  94.5351 0016361 106.4067 253.8884 13.50994555 58425
QIANFAN-60              
1 62790U 25016F   26064.58341417  .00000035  00000+0  34524-4 0  9998
2 62790  88.9671  94.4872 0017931 103.3716 256.9436 13.50992494 58410
QIANFAN-61              
1 62791U 25016G   26064.61459920 -.01743446  00000+0 -30832+1 0  9999
2 62791  88.9734  94.7032 0014065  94.6220 265.6536 13.46648286 58431
QIANFAN-62              
1 62792U 25016H   26064.54631523  .00000039  00000+0  42106-4 0  9995
2 62792  88.9685  94.5341 0018235 103.2036 257.1151 13.50996558 58413
QIANFAN-63              
1 62793U 25016J   26064.57103707  .00000039  00000+0  41569-4 0  9999
2 62793  88.9691  94.4886 0018272 107.9068 252.4078 13.50995183 58454
QIANFAN-64              
1 62794U 25016K   26064.61220697  .00000011  00000+0 -23892-5 0  9994
2 62794  88.9678  94.4472 0016232 101.4221 258.8754 13.51005458 58454
QIANFAN-65              
1 62795U 25016L   26064.60799895  .00000025  00000+0  19646-4 0  9990
2 62795  88.9674  94.4708 0016085 102.9446 257.3502 13.51008726 58438
QIANFAN-66              
1 62796U 25016M   26064.56274202  .00000036  00000+0  36386-4 0  9998
2 62796  88.9694  94.4618 0017197  99.3181 260.9916 13.50996882 58472
QIANFAN-67              
1 62797U 25016N   26064.56680223  .00000040  00000+0  43465-4 0  9994
2 62797  88.9684  94.4788 0017144 105.3437 254.9610 13.50995269 58443
QIANFAN-68              
1 62798U 25016P   26064.55871383  .00000045  00000+0  50063-4 0  9990
2 62798  88.9688  94.5279 0017211 103.8432 256.4636 13.51005235 58426
